STARLINK-36909          
1 67946U 26037Q   26079.50001157 -.01905247  00000+0 -13881-1 0  9994
2 67946  42.9990 132.2221 0001374 284.9150 112.0652 15.75658749  4934
STARLINK-36920          
1 67947U 26037R   26079.58335648 -.01878064  00000+0 -21717-1 0  9991
2 67947  42.9993 132.0001 0001478 282.1659 114.2185 15.64115148  4957
STARLINK-36873          
1 67948U 26037S   26079.50001157 -.01918655  00000+0 -23042-1 0  9993
2 67948  42.9991 132.5352 0001306 276.5115 354.7450 15.63238383  4934
STARLINK-36863          
1 67949U 26037T   26079.58335648 -.01879575  00000+0 -18996-1 0  9996
2 67949  42.9991 131.8632 0001288 289.0323 162.2516 15.67436127  4954
STARLINK-36887          
1 67950U 26037U   26079.50001157 -.01801063  00000+0 -30923-1 0  9996
2 67950  42.9992 132.9936 0001689 280.1119 166.9985 15.53673523  4933
STARLINK-36897          
1 67951U 26037V   26079.58335648 -.01886693  00000+0 -19892-1 0  9994
2 67951  42.9992 131.8747 0001354 285.6009 160.9522 15.66416259  4957
STARLINK-36381          
1 67952U 26037W   26079.58335648 -.01880742  00000+0 -21059-1 0  9992
2 67952  42.9994 131.9057 0001309 290.2413 143.9248 15.64923183  4959
STARLINK-36824          
1 67953U 26037X   26079.50001157 -.01870636  00000+0 -29864-1 0  9993
2 67953  42.9995 132.8515 0001187 294.1145 209.9354 15.55771022  4931
STARLINK-36869          
1 67954U 26037Y   26079.50001157 -.01873344  00000+0 -30147-1 0  9999
2 67954  42.9993 132.8411 0001365 289.4569 218.3627 15.55560695  4939
STARLINK-36872          
1 67955U 26037Z   26079.50001157 -.01937283  00000+0 -18374-1 0  9991
2 67955  42.9993 132.2508 0001362 281.0094 103.8407 15.69060571  4936
STARLINK-36918          
1 67956U 26037AA  26079.50001157 -.01919083  00000+0 -20937-1 0  9998
2 67956  42.9989 132.3484 0001386 278.3398  67.5506 15.65629732  4930
STARLINK-36829          
1 67957U 26037AB  26079.50001157 -.01918141  00000+0 -23973-1 0  9996
2 67957  42.9991 132.5017 0001292 277.1563   7.2387 15.62230228  4938
STARLINK-36799          
1 67958U 26037AC  26079.50001157 -.01936317  00000+0 -16545-1 0  9999
2 67958  42.9995 132.1680 0001332 288.4377 129.8829 15.71529012  4932
STARLINK-36834          
1 67959U 26037AD  26079.50001157 -.01908869  00000+0 -24053-1 0  9994
2 67959  42.9993 132.4568 0001307 273.8909  28.1306 15.62006549  4936
STARLINK-36841          
1 67960U 26037AE  26079.50001157 -.01912064  00000+0 -23183-1 0  9991
2 67960  42.9989 132.4263 0001440 278.1588  36.0156 15.62985251  4931
STARLINK-36912          
1 67961U 26038A   26079.50001157 -.02303700  00000+0 -34402-1 0  9991
2 67961  97.2851  90.2970 0001688  85.5972 346.0990 15.58435049  4930
