[{"OBJECT_NAME":"STARLINK-36909","OBJECT_ID":"2026-037Q","EPOCH":"2026-03-20T12:00:00.999648","MEAN_MOTION":15.75658749,"ECCENTRICITY":0.0001374,"INCLINATION":42.999,"RA_OF_ASC_NODE":132.2221,"ARG_OF_PERICENTER":284.915,"MEAN_ANOMALY":112.0652,"EPHEMERIS_TYPE":0,"CLASSIFICATION_TYPE":"U","NORAD_CAT_ID":67946,"ELEMENT_SET_NO":999,"REV_AT_EPOCH":493,"BSTAR":-0.013881229,"MEAN_MOTION_DOT":-0.01905247,"MEAN_MOTION_DDOT":0},{"OBJECT_NAME":"STARLINK-36920","OBJECT_ID":"2026-037R","EPOCH":"2026-03-20T14:00:01.999872","MEAN_MOTION":15.64115148,"ECCENTRICITY":0.00014783,"INCLINATION":42.9993,"RA_OF_ASC_NODE":132.0001,"ARG_OF_PERICENTER":282.1659,"MEAN_ANOMALY":114.2185,"EPHEMERIS_TYPE":0,"CLASSIFICATION_TYPE":"U","NORAD_CAT_ID":67947,"ELEMENT_SET_NO":999,"REV_AT_EPOCH":495,"BSTAR":-0.021717344,"MEAN_MOTION_DOT":-0.01878064,"MEAN_MOTION_DDOT":0},{"OBJECT_NAME":"STARLINK-36873","OBJECT_ID":"2026-037S","EPOCH":"2026-03-20T12:00:00.999648","MEAN_MOTION":15.63238383,"ECCENTRICITY":0.00013064,"INCLINATION":42.9991,"RA_OF_ASC_NODE":132.5352,"ARG_OF_PERICENTER":276.5115,"MEAN_ANOMALY":354.745,"EPHEMERIS_TYPE":0,"CLASSIFICATION_TYPE":"U","NORAD_CAT_ID":67948,"ELEMENT_SET_NO":999,"REV_AT_EPOCH":493,"BSTAR":-0.023042237,"MEAN_MOTION_DOT":-0.01918655,"MEAN_MOTION_DDOT":0},{"OBJECT_NAME":"STARLINK-36863","OBJECT_ID":"2026-037T","EPOCH":"2026-03-20T14:00:01.999872","MEAN_MOTION":15.67436127,"ECCENTRICITY":0.00012889,"INCLINATION":42.9991,"RA_OF_ASC_NODE":131.8632,"ARG_OF_PERICENTER":289.0323,"MEAN_ANOMALY":162.2516,"EPHEMERIS_TYPE":0,"CLASSIFICATION_TYPE":"U","NORAD_CAT_ID":67949,"ELEMENT_SET_NO":999,"REV_AT_EPOCH":495,"BSTAR":-0.018996169,"MEAN_MOTION_DOT":-0.01879575,"MEAN_MOTION_DDOT":0},{"OBJECT_NAME":"STARLINK-36887","OBJECT_ID":"2026-037U","EPOCH":"2026-03-20T12:00:00.999648","MEAN_MOTION":15.53673523,"ECCENTRICITY":0.00016899,"INCLINATION":42.9992,"RA_OF_ASC_NODE":132.9936,"ARG_OF_PERICENTER":280.1119,"MEAN_ANOMALY":166.9985,"EPHEMERIS_TYPE":0,"CLASSIFICATION_TYPE":"U","NORAD_CAT_ID":67950,"ELEMENT_SET_NO":999,"REV_AT_EPOCH":493,"BSTAR":-0.030923348,"MEAN_MOTION_DOT":-0.01801063,"MEAN_MOTION_DDOT":0},{"OBJECT_NAME":"STARLINK-36897","OBJECT_ID":"2026-037V","EPOCH":"2026-03-20T14:00:01.999872","MEAN_MOTION":15.66416259,"ECCENTRICITY":0.00013548,"INCLINATION":42.9992,"RA_OF_ASC_NODE":131.8747,"ARG_OF_PERICENTER":285.6009,"MEAN_ANOMALY":160.9522,"EPHEMERIS_TYPE":0,"CLASSIFICATION_TYPE":"U","NORAD_CAT_ID":67951,"ELEMENT_SET_NO":999,"REV_AT_EPOCH":495,"BSTAR":-0.019891591,"MEAN_MOTION_DOT":-0.01886693,"MEAN_MOTION_DDOT":0},{"OBJECT_NAME":"STARLINK-36381","OBJECT_ID":"2026-037W","EPOCH":"2026-03-20T14:00:01.999872","MEAN_MOTION":15.64923183,"ECCENTRICITY":0.00013098,"INCLINATION":42.9994,"RA_OF_ASC_NODE":131.9057,"ARG_OF_PERICENTER":290.2413,"MEAN_ANOMALY":143.9248,"EPHEMERIS_TYPE":0,"CLASSIFICATION_TYPE":"U","NORAD_CAT_ID":67952,"ELEMENT_SET_NO":999,"REV_AT_EPOCH":495,"BSTAR":-0.021058957,"MEAN_MOTION_DOT":-0.01880742,"MEAN_MOTION_DDOT":0},{"OBJECT_NAME":"STARLINK-36824","OBJECT_ID":"2026-037X","EPOCH":"2026-03-20T12:00:00.999648","MEAN_MOTION":15.55771022,"ECCENTRICITY":0.00011872,"INCLINATION":42.9995,"RA_OF_ASC_NODE":132.8515,"ARG_OF_PERICENTER":294.1145,"MEAN_ANOMALY":209.9354,"EPHEMERIS_TYPE":0,"CLASSIFICATION_TYPE":"U","NORAD_CAT_ID":67953,"ELEMENT_SET_NO":999,"REV_AT_EPOCH":493,"BSTAR":-0.029863614,"MEAN_MOTION_DOT":-0.01870636,"MEAN_MOTION_DDOT":0},{"OBJECT_NAME":"STARLINK-36869","OBJECT_ID":"2026-037Y","EPOCH":"2026-03-20T12:00:00.999648","MEAN_MOTION":15.55560695,"ECCENTRICITY":0.00013652,"INCLINATION":42.9993,"RA_OF_ASC_NODE":132.8411,"ARG_OF_PERICENTER":289.4569,"MEAN_ANOMALY":218.3627,"EPHEMERIS_TYPE":0,"CLASSIFICATION_TYPE":"U","NORAD_CAT_ID":67954,"ELEMENT_SET_NO":999,"REV_AT_EPOCH":493,"BSTAR":-0.030146751,"MEAN_MOTION_DOT":-0.01873344,"MEAN_MOTION_DDOT":0},{"OBJECT_NAME":"STARLINK-36872","OBJECT_ID":"2026-037Z","EPOCH":"2026-03-20T12:00:00.999648","MEAN_MOTION":15.69060571,"ECCENTRICITY":0.00013621,"INCLINATION":42.9993,"RA_OF_ASC_NODE":132.2508,"ARG_OF_PERICENTER":281.0094,"MEAN_ANOMALY":103.8407,"EPHEMERIS_TYPE":0,"CLASSIFICATION_TYPE":"U","NORAD_CAT_ID":67955,"ELEMENT_SET_NO":999,"REV_AT_EPOCH":493,"BSTAR":-0.018374009,"MEAN_MOTION_DOT":-0.01937283,"MEAN_MOTION_DDOT":0},{"OBJECT_NAME":"STARLINK-36918","OBJECT_ID":"2026-037AA","EPOCH":"2026-03-20T12:00:00.999648","MEAN_MOTION":15.65629732,"ECCENTRICITY":0.00013861,"INCLINATION":42.9989,"RA_OF_ASC_NODE":132.3484,"ARG_OF_PERICENTER":278.3398,"MEAN_ANOMALY":67.5506,"EPHEMERIS_TYPE":0,"CLASSIFICATION_TYPE":"U","NORAD_CAT_ID":67956,"ELEMENT_SET_NO":999,"REV_AT_EPOCH":493,"BSTAR":-0.020937027,"MEAN_MOTION_DOT":-0.01919083,"MEAN_MOTION_DDOT":0},{"OBJECT_NAME":"STARLINK-36829","OBJECT_ID":"2026-037AB","EPOCH":"2026-03-20T12:00:00.999648","MEAN_MOTION":15.62230228,"ECCENTRICITY":0.00012923,"INCLINATION":42.9991,"RA_OF_ASC_NODE":132.5017,"ARG_OF_PERICENTER":277.1563,"MEAN_ANOMALY":7.2387,"EPHEMERIS_TYPE":0,"CLASSIFICATION_TYPE":"U","NORAD_CAT_ID":67957,"ELEMENT_SET_NO":999,"REV_AT_EPOCH":493,"BSTAR":-0.023973331,"MEAN_MOTION_DOT":-0.01918141,"MEAN_MOTION_DDOT":0},{"OBJECT_NAME":"STARLINK-36799","OBJECT_ID":"2026-037AC","EPOCH":"2026-03-20T12:00:00.999648","MEAN_MOTION":15.71529012,"ECCENTRICITY":0.00013322,"INCLINATION":42.9995,"RA_OF_ASC_NODE":132.168,"ARG_OF_PERICENTER":288.4377,"MEAN_ANOMALY":129.8829,"EPHEMERIS_TYPE":0,"CLASSIFICATION_TYPE":"U","NORAD_CAT_ID":67958,"ELEMENT_SET_NO":999,"REV_AT_EPOCH":493,"BSTAR":-0.016544591,"MEAN_MOTION_DOT":-0.01936317,"MEAN_MOTION_DDOT":0},{"OBJECT_NAME":"STARLINK-36834","OBJECT_ID":"2026-037AD","EPOCH":"2026-03-20T12:00:00.999648","MEAN_MOTION":15.62006549,"ECCENTRICITY":0.00013078,"INCLINATION":42.9993,"RA_OF_ASC_NODE":132.4568,"ARG_OF_PERICENTER":273.8909,"MEAN_ANOMALY":28.1306,"EPHEMERIS_TYPE":0,"CLASSIFICATION_TYPE":"U","NORAD_CAT_ID":67959,"ELEMENT_SET_NO":999,"REV_AT_EPOCH":493,"BSTAR":-0.024052948,"MEAN_MOTION_DOT":-0.01908869,"MEAN_MOTION_DDOT":0},{"OBJECT_NAME":"STARLINK-36841","OBJECT_ID":"2026-037AE","EPOCH":"2026-03-20T12:00:00.999648","MEAN_MOTION":15.62985251,"ECCENTRICITY":0.000144,"INCLINATION":42.9989,"RA_OF_ASC_NODE":132.4263,"ARG_OF_PERICENTER":278.1588,"MEAN_ANOMALY":36.0156,"EPHEMERIS_TYPE":0,"CLASSIFICATION_TYPE":"U","NORAD_CAT_ID":67960,"ELEMENT_SET_NO":999,"REV_AT_EPOCH":493,"BSTAR":-0.023183259,"MEAN_MOTION_DOT":-0.01912064,"MEAN_MOTION_DDOT":0},{"OBJECT_NAME":"STARLINK-36912","OBJECT_ID":"2026-038A","EPOCH":"2026-03-20T12:00:00.999648","MEAN_MOTION":15.58435049,"ECCENTRICITY":0.00016881,"INCLINATION":97.2851,"RA_OF_ASC_NODE":90.297,"ARG_OF_PERICENTER":85.5972,"MEAN_ANOMALY":346.099,"EPHEMERIS_TYPE":0,"CLASSIFICATION_TYPE":"U","NORAD_CAT_ID":67961,"ELEMENT_SET_NO":999,"REV_AT_EPOCH":493,"BSTAR":-0.034402381,"MEAN_MOTION_DOT":-0.023037,"MEAN_MOTION_DDOT":0}]
